{
  "norad_id": 60127,
  "name": "STARLINK-31840",
  "history": [
    {
      "epoch": "2026-03-28T21:04:10.903008Z",
      "apogee_km": 475.96877096810385,
      "perigee_km": 474.4859770521434,
      "latitude_deg": -4.5218840627763606e-05,
      "longitude_deg": 155.29459955594402,
      "height_km": 476.16196752351084,
      "semi_major_axis_km": 6853.364374010123,
      "eccentricity": 0.00010818,
      "inclination_deg": 53.1612,
      "raan_deg": 297.6321,
      "arg_perigee_deg": 92.7931,
      "mean_anomaly_deg": 267.3193,
      "mean_motion_rev_day": 15.30195879
    },
    {
      "epoch": "2026-03-29T23:43:04.769760Z",
      "apogee_km": 475.9378262210839,
      "perigee_km": 474.4999921513363,
      "latitude_deg": -5.145183038782731e-07,
      "longitude_deg": 109.31698187383492,
      "height_km": 475.9361539107112,
      "semi_major_axis_km": 6853.35590918621,
      "eccentricity": 0.0001049,
      "inclination_deg": 53.1608,
      "raan_deg": 292.4733,
      "arg_perigee_deg": 75.3961,
      "mean_anomaly_deg": 284.7156,
      "mean_motion_rev_day": 15.30198714
    },
    {
      "epoch": "2026-03-30T05:59:18.013056Z",
      "apogee_km": 475.96188186904874,
      "perigee_km": 474.512256185968,
      "latitude_deg": -2.320137030796858e-05,
      "longitude_deg": 13.790170932297132,
      "height_km": 475.9002064452097,
      "semi_major_axis_km": 6853.374069027508,
      "eccentricity": 0.00010576,
      "inclination_deg": 53.1606,
      "raan_deg": 291.2592,
      "arg_perigee_deg": 71.0505,
      "mean_anomaly_deg": 289.061,
      "mean_motion_rev_day": 15.30192632
    },
    {
      "epoch": "2026-03-30T13:49:34.206240Z",
      "apogee_km": 475.9680952377157,
      "perigee_km": 474.5121638003202,
      "latitude_deg": -4.7525440184488784e-05,
      "longitude_deg": -105.61590671215082,
      "height_km": 475.9362257934458,
      "semi_major_axis_km": 6853.377129519018,
      "eccentricity": 0.00010622,
      "inclination_deg": 53.1603,
      "raan_deg": 289.7425,
      "arg_perigee_deg": 73.8606,
      "mean_anomaly_deg": 286.2511,
      "mean_motion_rev_day": 15.30191607
    },
    {
      "epoch": "2026-03-30T20:05:45.046752Z",
      "apogee_km": 475.8014085068089,
      "perigee_km": 474.5382069960051,
      "latitude_deg": 3.309645461776413e-05,
      "longitude_deg": 158.86819833335215,
      "height_km": 475.9550012251625,
      "semi_major_axis_km": 6853.306807751407,
      "eccentricity": 9.216e-05,
      "inclination_deg": 53.1599,
      "raan_deg": 288.5292,
      "arg_perigee_deg": 79.6602,
      "mean_anomaly_deg": 280.4503,
      "mean_motion_rev_day": 15.30215159
    },
    {
      "epoch": "2026-03-31T13:20:22.463520Z",
      "apogee_km": 476.04750941633847,
      "perigee_km": 474.4917861072954,
      "latitude_deg": -9.146112869559399e-06,
      "longitude_deg": -103.83391006989592,
      "height_km": 475.98581544905704,
      "semi_major_axis_km": 6853.406647761816,
      "eccentricity": 0.0001135,
      "inclination_deg": 53.1603,
      "raan_deg": 285.1912,
      "arg_perigee_deg": 76.4564,
      "mean_anomaly_deg": 283.6563,
      "mean_motion_rev_day": 15.30181721
    }
  ]
}